STARLINK-1894
1 46744U 20074F   26092.83335647  .00602256  16200-3  14719-2 0  9993
2 46744  53.0353 155.3502 0010778  17.0873  73.6181 15.95515048  5998
